[
    {
        "Altitude(m)": 711093.2360934344,
        "Argument of Periapsis(deg)": 0.009112096949301655,
        "Eccentricity": 0.0,
        "Inclination(deg)": 45.0,
        "Latitude(deg)": -28.390927508454375,
        "Longitude(deg)": -58.0932257037625,
        "Mean Anomaly(deg)": -138.04612668201537,
        "RAAN(deg)": 189.99139844683344,
        "Satellite Name": "Constellation 1 849",
        "Satellite Number": 849,
        "Semi-Major Axis(m)": 7083131.272910544,
        "Time(s)": 152
    },
    {
        "Altitude(m)": 711107.0431324013,
        "Argument of Periapsis(deg)": 0.009172044955547059,
        "Eccentricity": 0.0,
        "Inclination(deg)": 45.0,
        "Latitude(deg)": -28.427216588057803,
        "Longitude(deg)": -58.0421129450894,
        "Mean Anomaly(deg)": -137.9854255417654,
        "RAAN(deg)": 189.9913418576679,
        "Satellite Name": "Constellation 1 849",
        "Satellite Number": 849,
        "Semi-Major Axis(m)": 7083131.272910544,
        "Time(s)": 153
    },
    {
        "Altitude(m)": 711120.8482021696,
        "Argument of Periapsis(deg)": 0.009231992961792466,
        "Eccentricity": 0.0,
        "Inclination(deg)": 45.0,
        "Latitude(deg)": -28.463482986730924,
        "Longitude(deg)": -57.990962664973416,
        "Mean Anomaly(deg)": -137.92472440151553,
        "RAAN(deg)": 189.99128526850234,
        "Satellite Name": "Constellation 1 849",
        "Satellite Number": 849,
        "Semi-Major Axis(m)": 7083131.272910544,
        "Time(s)": 154
    },
    {
        "Altitude(m)": 711134.6512547166,
        "Argument of Periapsis(deg)": 0.009291940968037872,
        "Eccentricity": 0.0,
        "Inclination(deg)": 45.0,
        "Latitude(deg)": -28.499726655728804,
        "Longitude(deg)": -57.939774804342804,
        "Mean Anomaly(deg)": -137.86402326126563,
        "RAAN(deg)": 189.99122867933673,
        "Satellite Name": "Constellation 1 849",
        "Satellite Number": 849,
        "Semi-Major Axis(m)": 7083131.272910544,
        "Time(s)": 155
    },
    {
        "Altitude(m)": 711148.4522420223,
        "Argument of Periapsis(deg)": 0.009351888974283276,
        "Eccentricity": 0.0,
        "Inclination(deg)": 45.0,
        "Latitude(deg)": -28.53594754623687,
        "Longitude(deg)": -57.88854947225554,
        "Mean Anomaly(deg)": -137.80332212101575,
        "RAAN(deg)": 189.99117209017118,
        "Satellite Name": "Constellation 1 849",
        "Satellite Number": 849,
        "Semi-Major Axis(m)": 7083131.272910544,
        "Time(s)": 156
    },
    {
        "Altitude(m)": 711162.251116056,
        "Argument of Periapsis(deg)": 0.00941183698052868,
        "Eccentricity": 0.0,
        "Inclination(deg)": 45.0,
        "Latitude(deg)": -28.572145609370654,
        "Longitude(deg)": -57.83728627351074,
        "Mean Anomaly(deg)": -137.74262098076585,
        "RAAN(deg)": 189.9911155010056,
        "Satellite Name": "Constellation 1 849",
        "Satellite Number": 849,
        "Semi-Major Axis(m)": 7083131.272910544,
        "Time(s)": 157
    },
    {
        "Altitude(m)": 711176.0478287934,
        "Argument of Periapsis(deg)": 0.009471784986774088,
        "Eccentricity": 0.0,
        "Inclination(deg)": 45.0,
        "Latitude(deg)": -28.608320796176095,
        "Longitude(deg)": -57.78598531723294,
        "Mean Anomaly(deg)": -137.68191984051595,
        "RAAN(deg)": 189.99105891184004,
        "Satellite Name": "Constellation 1 849",
        "Satellite Number": 849,
        "Semi-Major Axis(m)": 7083131.272910544,
        "Time(s)": 158
    },
    {
        "Altitude(m)": 711189.8423322006,
        "Argument of Periapsis(deg)": 0.009531732993019492,
        "Eccentricity": 0.0,
        "Inclination(deg)": 45.0,
        "Latitude(deg)": -28.644473057629344,
        "Longitude(deg)": -57.73464654448321,
        "Mean Anomaly(deg)": -137.621218700266,
        "RAAN(deg)": 189.99100232267443,
        "Satellite Name": "Constellation 1 849",
        "Satellite Number": 849,
        "Semi-Major Axis(m)": 7083131.272910544,
        "Time(s)": 159
    },
    {
        "Altitude(m)": 711203.6345782424,
        "Argument of Periapsis(deg)": 0.009591680999264898,
        "Eccentricity": 0.0,
        "Inclination(deg)": 45.0,
        "Latitude(deg)": -28.680602344636497,
        "Longitude(deg)": -57.68326989635754,
        "Mean Anomaly(deg)": -137.56051756001617,
        "RAAN(deg)": 189.99094573350888,
        "Satellite Name": "Constellation 1 849",
        "Satellite Number": 849,
        "Semi-Major Axis(m)": 7083131.272910544,
        "Time(s)": 160
    },
    {
        "Altitude(m)": 711217.4245188831,
        "Argument of Periapsis(deg)": 0.009651629005510304,
        "Eccentricity": 0.0,
        "Inclination(deg)": 45.0,
        "Latitude(deg)": -28.716708608033947,
        "Longitude(deg)": -57.63185531398653,
        "Mean Anomaly(deg)": -137.49981641976623,
        "RAAN(deg)": 189.99088914434333,
        "Satellite Name": "Constellation 1 849",
        "Satellite Number": 849,
        "Semi-Major Axis(m)": 7083131.272910544,
        "Time(s)": 161
    },
    {
        "Altitude(m)": 711231.2121060832,
        "Argument of Periapsis(deg)": 0.00971157701175571,
        "Eccentricity": 0.0,
        "Inclination(deg)": 45.0,
        "Latitude(deg)": -28.752791798587914,
        "Longitude(deg)": -57.580402738536876,
        "Mean Anomaly(deg)": -137.43911527951636,
        "RAAN(deg)": 189.99083255517775,
        "Satellite Name": "Constellation 1 849",
        "Satellite Number": 849,
        "Semi-Major Axis(m)": 7083131.272910544,
        "Time(s)": 162
    },
    {
        "Altitude(m)": 711244.9972918002,
        "Argument of Periapsis(deg)": 0.009771525018001118,
        "Eccentricity": 0.0,
        "Inclination(deg)": 45.0,
        "Latitude(deg)": -28.78885186699482,
        "Longitude(deg)": -57.52891227930838,
        "Mean Anomaly(deg)": -137.37841413926643,
        "RAAN(deg)": 189.9907759660122,
        "Satellite Name": "Constellation 1 849",
        "Satellite Number": 849,
        "Semi-Major Axis(m)": 7083131.272910544,
        "Time(s)": 163
    },
    {
        "Altitude(m)": 711258.7800279958,
        "Argument of Periapsis(deg)": 0.00983147302424652,
        "Eccentricity": 0.0,
        "Inclination(deg)": 45.0,
        "Latitude(deg)": -28.824888763880455,
        "Longitude(deg)": -57.47738354134626,
        "Mean Anomaly(deg)": -137.31771299901652,
        "RAAN(deg)": 189.99071937684658,
        "Satellite Name": "Constellation 1 849",
        "Satellite Number": 849,
        "Semi-Major Axis(m)": 7083131.272910544,
        "Time(s)": 164
    },
    {
        "Altitude(m)": 711272.5602666187,
        "Argument of Periapsis(deg)": 0.009891421030491928,
        "Eccentricity": 0.0,
        "Inclination(deg)": 45.0,
        "Latitude(deg)": -28.860902439800928,
        "Longitude(deg)": -57.42581663402458,
        "Mean Anomaly(deg)": -137.25701185876667,
        "RAAN(deg)": 189.99066278768103,
        "Satellite Name": "Constellation 1 849",
        "Satellite Number": 849,
        "Semi-Major Axis(m)": 7083131.272910544,
        "Time(s)": 165
    },
    {
        "Altitude(m)": 711286.3379596323,
        "Argument of Periapsis(deg)": 0.009951369036737332,
        "Eccentricity": 0.0,
        "Inclination(deg)": 45.0,
        "Latitude(deg)": -28.896892845242064,
        "Longitude(deg)": -57.37421149865775,
        "Mean Anomaly(deg)": -137.1963107185167,
        "RAAN(deg)": 189.99060619851548,
        "Satellite Name": "Constellation 1 849",
        "Satellite Number": 849,
        "Semi-Major Axis(m)": 7083131.272910544,
        "Time(s)": 166
    },
    {
        "Altitude(m)": 711300.1130589852,
        "Argument of Periapsis(deg)": 0.010011317042982738,
        "Eccentricity": 0.0,
        "Inclination(deg)": 45.0,
        "Latitude(deg)": -28.932859930619234,
        "Longitude(deg)": -57.322568076599225,
        "Mean Anomaly(deg)": -137.13560957826684,
        "RAAN(deg)": 189.9905496093499,
        "Satellite Name": "Constellation 1 849",
        "Satellite Number": 849,
        "Semi-Major Axis(m)": 7083131.272910544,
        "Time(s)": 167
    },
    {
        "Altitude(m)": 711313.885516629,
        "Argument of Periapsis(deg)": 0.010071265049228144,
        "Eccentricity": 0.0,
        "Inclination(deg)": 45.0,
        "Latitude(deg)": -28.968803646277635,
        "Longitude(deg)": -57.2708863092409,
        "Mean Anomaly(deg)": -137.07490843801696,
        "RAAN(deg)": 189.99049302018435,
        "Satellite Name": "Constellation 1 849",
        "Satellite Number": 849,
        "Semi-Major Axis(m)": 7083131.272910544,
        "Time(s)": 168
    },
    {
        "Altitude(m)": 711327.6552845186,
        "Argument of Periapsis(deg)": 0.01013121305547355,
        "Eccentricity": 0.0,
        "Inclination(deg)": 45.0,
        "Latitude(deg)": -29.004723942491992,
        "Longitude(deg)": -57.21916613801459,
        "Mean Anomaly(deg)": -137.01420729776703,
        "RAAN(deg)": 189.9904364310188,
        "Satellite Name": "Constellation 1 849",
        "Satellite Number": 849,
        "Semi-Major Axis(m)": 7083131.272910544,
        "Time(s)": 169
    },
    {
        "Altitude(m)": 711341.4223146039,
        "Argument of Periapsis(deg)": 0.010191161061718957,
        "Eccentricity": 0.0,
        "Inclination(deg)": 45.0,
        "Latitude(deg)": -29.040620769466692,
        "Longitude(deg)": -57.167407504392074,
        "Mean Anomaly(deg)": -136.95350615751718,
        "RAAN(deg)": 189.99037984185318,
        "Satellite Name": "Constellation 1 849",
        "Satellite Number": 849,
        "Semi-Major Axis(m)": 7083131.272910544,
        "Time(s)": 170
    }
]